{
  "type": "FeatureCollection",
  "generator": "overpass-turbo",
  "copyright": "The data included in this document is from www.openstreetmap.org. The data is made available under ODbL.",
  "timestamp": "2025-08-26T00:45:38Z",
  "features": [
    {
      "type": "Feature",
      "properties": {
        "@id": "relation/16442199",
        "admin_level": "8",
        "border_type": "borough",
        "boundary": "administrative",
        "name": "East Petersburg",
        "source": "TIGER/Line® 2008 Place Shapefiles (http://www.census.gov/geo/www/tiger/)",
        "type": "boundary",
        "wikidata": "Q1133960"
      },
      "geometry": {
        "type": "Polygon",
        "coordinates": [
          [
            [
              -76.3459709,
              40.0941919
            ],
            [
              -76.3459878,
              40.0942659
            ],
            [
              -76.3446717,
              40.0981259
            ],
            [
              -76.3445359,
              40.0984147
            ],
            [
              -76.344668,
              40.0984019
            ],
            [
              -76.3470155,
              40.0983706
            ],
            [
              -76.3471811,
              40.1002332
            ],
            [
              -76.335781,
              40.1043667
            ],
            [
              -76.3358322,
              40.1043917
            ],
            [
              -76.3359958,
              40.1044779
            ],
            [
              -76.3360066,
              40.1045435
            ],
            [
              -76.3360146,
              40.1045804
            ],
            [
              -76.3361863,
              40.1046851
            ],
            [
              -76.3362506,
              40.1047425
            ],
            [
              -76.3362506,
              40.1047877
            ],
            [
              -76.3362104,
              40.1048533
            ],
            [
              -76.3361085,
              40.1049251
            ],
            [
              -76.3360843,
              40.1049682
            ],
            [
              -76.3360924,
              40.1050092
            ],
            [
              -76.3361755,
              40.1050523
            ],
            [
              -76.3363526,
              40.1051282
            ],
            [
              -76.3363767,
              40.1051692
            ],
            [
              -76.3363177,
              40.1052554
            ],
            [
              -76.3362506,
              40.1053067
            ],
            [
              -76.336146,
              40.1053498
            ],
            [
              -76.3361407,
              40.1053805
            ],
            [
              -76.3362077,
              40.1054626
            ],
            [
              -76.3363392,
              40.1055077
            ],
            [
              -76.3363579,
              40.1055406
            ],
            [
              -76.3363365,
              40.1055672
            ],
            [
              -76.336307,
              40.1055877
            ],
            [
              -76.3362131,
              40.1056801
            ],
            [
              -76.3361863,
              40.1057149
            ],
            [
              -76.3361943,
              40.1057601
            ],
            [
              -76.3362667,
              40.1058278
            ],
            [
              -76.3362909,
              40.1058893
            ],
            [
              -76.3363284,
              40.1059591
            ],
            [
              -76.3363472,
              40.1060063
            ],
            [
              -76.3363231,
              40.106037
            ],
            [
              -76.3362801,
              40.1060657
            ],
            [
              -76.3362426,
              40.106115
            ],
            [
              -76.3362667,
              40.1061396
            ],
            [
              -76.3363955,
              40.1061642
            ],
            [
              -76.336492,
              40.1061765
            ],
            [
              -76.336543,
              40.1062032
            ],
            [
              -76.3365189,
              40.1062647
            ],
            [
              -76.3364947,
              40.1063345
            ],
            [
              -76.3364974,
              40.106394
            ],
            [
              -76.3365645,
              40.1064494
            ],
            [
              -76.3366503,
              40.1064617
            ],
            [
              -76.3367093,
              40.1065089
            ],
            [
              -76.3368059,
              40.1065643
            ],
            [
              -76.336881,
              40.1066135
            ],
            [
              -76.3368917,
              40.1066566
            ],
            [
              -76.3369882,
              40.1067222
            ],
            [
              -76.337066,
              40.1067776
            ],
            [
              -76.3370794,
              40.1068227
            ],
            [
              -76.3370794,
              40.1068781
            ],
            [
              -76.3370821,
              40.106954
            ],
            [
              -76.3372404,
              40.1069807
            ],
            [
              -76.3373343,
              40.1070012
            ],
            [
              -76.3374335,
              40.1070915
            ],
            [
              -76.3374845,
              40.1071161
            ],
            [
              -76.3376534,
              40.1072864
            ],
            [
              -76.3378412,
              40.1073787
            ],
            [
              -76.3380182,
              40.1074915
            ],
            [
              -76.3382222,
              40.1076258
            ],
            [
              -76.3399783,
              40.1070398
            ],
            [
              -76.3423209,
              40.1067074
            ],
            [
              -76.3423434,
              40.1073658
            ],
            [
              -76.3446798,
              40.1073857
            ],
            [
              -76.3446814,
              40.1073977
            ],
            [
              -76.344689,
              40.1081869
            ],
            [
              -76.3446899,
              40.1082777
            ],
            [
              -76.3447782,
              40.1083116
            ],
            [
              -76.3448484,
              40.108358
            ],
            [
              -76.3449397,
              40.1084372
            ],
            [
              -76.3450174,
              40.1085501
            ],
            [
              -76.3451784,
              40.1087224
            ],
            [
              -76.345376,
              40.1089251
            ],
            [
              -76.3461979,
              40.1086126
            ],
            [
              -76.3464689,
              40.1091405
            ],
            [
              -76.347097,
              40.1097965
            ],
            [
              -76.3471582,
              40.1103101
            ],
            [
              -76.3471595,
              40.1103212
            ],
            [
              -76.3512512,
              40.1081533
            ],
            [
              -76.3518698,
              40.1079411
            ],
            [
              -76.3528434,
              40.1076072
            ],
            [
              -76.3527986,
              40.1069811
            ],
            [
              -76.3541063,
              40.1071541
            ],
            [
              -76.3558957,
              40.1065477
            ],
            [
              -76.3565246,
              40.1066413
            ],
            [
              -76.3575937,
              40.1067999
            ],
            [
              -76.358171,
              40.1068931
            ],
            [
              -76.359232,
              40.1070871
            ],
            [
              -76.3602001,
              40.1072573
            ],
            [
              -76.3602518,
              40.1072646
            ],
            [
              -76.3606823,
              40.1083841
            ],
            [
              -76.3641575,
              40.1084653
            ],
            [
              -76.3670226,
              40.1088503
            ],
            [
              -76.3667455,
              40.1084989
            ],
            [
              -76.3659797,
              40.1074632
            ],
            [
              -76.3653875,
              40.1065919
            ],
            [
              -76.3647424,
              40.1055445
            ],
            [
              -76.3638626,
              40.1037368
            ],
            [
              -76.3615526,
              40.0979797
            ],
            [
              -76.3611975,
              40.097003
            ],
            [
              -76.3611043,
              40.0970555
            ],
            [
              -76.3597447,
              40.0935848
            ],
            [
              -76.3556325,
              40.0945498
            ],
            [
              -76.3508978,
              40.0939935
            ],
            [
              -76.350808,
              40.093851
            ],
            [
              -76.350654,
              40.09365
            ],
            [
              -76.3505784,
              40.0935517
            ],
            [
              -76.3504169,
              40.0933696
            ],
            [
              -76.3501245,
              40.0931255
            ],
            [
              -76.3498555,
              40.0929395
            ],
            [
              -76.349619,
              40.0927888
            ],
            [
              -76.3489814,
              40.0923913
            ],
            [
              -76.3485047,
              40.0920941
            ],
            [
              -76.3483134,
              40.0919748
            ],
            [
              -76.347949,
              40.0917476
            ],
            [
              -76.3477994,
              40.0916544
            ],
            [
              -76.3474307,
              40.0913963
            ],
            [
              -76.3473041,
              40.0912998
            ],
            [
              -76.3471744,
              40.0911826
            ],
            [
              -76.3470561,
              40.0910663
            ],
            [
              -76.3469776,
              40.0909793
            ],
            [
              -76.3469032,
              40.0908927
            ],
            [
              -76.346795,
              40.0907622
            ],
            [
              -76.3466808,
              40.0905927
            ],
            [
              -76.3465965,
              40.0904589
            ],
            [
              -76.346535,
              40.0903556
            ],
            [
              -76.3464747,
              40.0902316
            ],
            [
              -76.346429,
              40.0901163
            ],
            [
              -76.3463824,
              40.0899951
            ],
            [
              -76.3463478,
              40.089865
            ],
            [
              -76.3462661,
              40.0895064
            ],
            [
              -76.3461789,
              40.089127
            ],
            [
              -76.3461035,
              40.0887989
            ],
            [
              -76.3460896,
              40.0887384
            ],
            [
              -76.34595,
              40.088131
            ],
            [
              -76.3458877,
              40.0878462
            ],
            [
              -76.345762,
              40.087272
            ],
            [
              -76.3457,
              40.086942
            ],
            [
              -76.345695,
              40.086912
            ],
            [
              -76.345691,
              40.0868999
            ],
            [
              -76.345665,
              40.086821
            ],
            [
              -76.3456384,
              40.0867003
            ],
            [
              -76.345619,
              40.086612
            ],
            [
              -76.345565,
              40.086427
            ],
            [
              -76.3455,
              40.086274
            ],
            [
              -76.3454823,
              40.086239
            ],
            [
              -76.3454056,
              40.0860873
            ],
            [
              -76.34536,
              40.085997
            ],
            [
              -76.345285,
              40.085872
            ],
            [
              -76.345205,
              40.085763
            ],
            [
              -76.34496,
              40.085485
            ],
            [
              -76.344822,
              40.085352
            ],
            [
              -76.3447891,
              40.0853251
            ],
            [
              -76.344663,
              40.085222
            ],
            [
              -76.3444917,
              40.0850754
            ],
            [
              -76.3444515,
              40.0851335
            ],
            [
              -76.3443865,
              40.0852323
            ],
            [
              -76.344351,
              40.0853913
            ],
            [
              -76.3443875,
              40.0855407
            ],
            [
              -76.3444576,
              40.0856598
            ],
            [
              -76.3445698,
              40.0858057
            ],
            [
              -76.3446314,
              40.0858743
            ],
            [
              -76.3447114,
              40.0859344
            ],
            [
              -76.3448403,
              40.0860052
            ],
            [
              -76.3448936,
              40.0860534
            ],
            [
              -76.344916,
              40.0861028
            ],
            [
              -76.3449343,
              40.086594
            ],
            [
              -76.3449819,
              40.0868053
            ],
            [
              -76.3449819,
              40.0869533
            ],
            [
              -76.3448235,
              40.0871786
            ],
            [
              -76.3448193,
              40.0872826
            ],
            [
              -76.3450773,
              40.0872869
            ],
            [
              -76.3449959,
              40.0875261
            ],
            [
              -76.344874,
              40.0876956
            ],
            [
              -76.3448053,
              40.0877524
            ],
            [
              -76.3445179,
              40.0875175
            ],
            [
              -76.344323,
              40.0876173
            ],
            [
              -76.3440833,
              40.0877696
            ],
            [
              -76.3441744,
              40.0879777
            ],
            [
              -76.3440889,
              40.0880409
            ],
            [
              -76.343894,
              40.0880141
            ],
            [
              -76.343791,
              40.0879909
            ],
            [
              -76.3436095,
              40.0880869
            ],
            [
              -76.343225,
              40.0881958
            ],
            [
              -76.3435517,
              40.088743
            ],
            [
              -76.3402321,
              40.0917924
            ],
            [
              -76.3398717,
              40.0927308
            ],
            [
              -76.3399655,
              40.093184
            ],
            [
              -76.3393362,
              40.0934521
            ],
            [
              -76.3394083,
              40.0956832
            ],
            [
              -76.3395047,
              40.0956756
            ],
            [
              -76.3396436,
              40.0956561
            ],
            [
              -76.3401081,
              40.0955624
            ],
            [
              -76.341999,
              40.0951813
            ],
            [
              -76.3427765,
              40.0950248
            ],
            [
              -76.3430908,
              40.0949579
            ],
            [
              -76.3432824,
              40.0949142
            ],
            [
              -76.3436633,
              40.0948203
            ],
            [
              -76.3441858,
              40.094674
            ],
            [
              -76.3448716,
              40.0944907
            ],
            [
              -76.3454642,
              40.0943317
            ],
            [
              -76.345234,
              40.0938146
            ],
            [
              -76.3460611,
              40.0935835
            ],
            [
              -76.3461253,
              40.0937113
            ],
            [
              -76.3466931,
              40.0935556
            ],
            [
              -76.3466778,
              40.0939943
            ],
            [
              -76.3464666,
              40.0940547
            ],
            [
              -76.3459709,
              40.0941919
            ]
          ]
        ]
      },
      "id": "relation/16442199"
    },
    {
      "type": "Feature",
      "properties": {
        "@id": "node/158613710",
        "@relations": [
          {
            "role": "label",
            "rel": 16442199,
            "reltags": {
              "admin_level": "8",
              "border_type": "borough",
              "boundary": "administrative",
              "name": "East Petersburg",
              "source": "TIGER/Line® 2008 Place Shapefiles (http://www.census.gov/geo/www/tiger/)",
              "type": "boundary",
              "wikidata": "Q1133960"
            }
          }
        ]
      },
      "geometry": {
        "type": "Point",
        "coordinates": [
          -76.3541107,
          40.1000381
        ]
      },
      "id": "node/158613710"
    }
  ]
}